<?xml version="1.0" encoding="UTF-8"?>
<kml xmlns="http://www.opengis.net/kml/2.2">
  <Document>
    <name>Masruut Kose tee – Tallinn Industrial Education Center</name>
    <Style id="icon-1899-DB4436-nodesc-normal">
      <IconStyle>
        <color>ff3644db</color>
        <scale>1</scale>
        <Icon>
          <href>https://www.gstatic.com/mapspro/images/stock/503-wht-blank_maps.png</href>
        </Icon>
        <hotSpot x="32" xunits="pixels" y="64" yunits="insetPixels"/>
      </IconStyle>
      <LabelStyle>
        <scale>0</scale>
      </LabelStyle>
      <BalloonStyle>
        <text><![CDATA[<h3>$[name]</h3>]]></text>
      </BalloonStyle>
    </Style>
    <Style id="icon-1899-DB4436-nodesc-highlight">
      <IconStyle>
        <color>ff3644db</color>
        <scale>1</scale>
        <Icon>
          <href>https://www.gstatic.com/mapspro/images/stock/503-wht-blank_maps.png</href>
        </Icon>
        <hotSpot x="32" xunits="pixels" y="64" yunits="insetPixels"/>
      </IconStyle>
      <LabelStyle>
        <scale>1</scale>
      </LabelStyle>
      <BalloonStyle>
        <text><![CDATA[<h3>$[name]</h3>]]></text>
      </BalloonStyle>
    </Style>
    <StyleMap id="icon-1899-DB4436-nodesc">
      <Pair>
        <key>normal</key>
        <styleUrl>#icon-1899-DB4436-nodesc-normal</styleUrl>
      </Pair>
      <Pair>
        <key>highlight</key>
        <styleUrl>#icon-1899-DB4436-nodesc-highlight</styleUrl>
      </Pair>
    </StyleMap>
    <Style id="line-1267FF-5000-nodesc-normal">
      <LineStyle>
        <color>ffff6712</color>
        <width>5</width>
      </LineStyle>
      <BalloonStyle>
        <text><![CDATA[<h3>$[name]</h3>]]></text>
      </BalloonStyle>
    </Style>
    <Style id="line-1267FF-5000-nodesc-highlight">
      <LineStyle>
        <color>ffff6712</color>
        <width>7.5</width>
      </LineStyle>
      <BalloonStyle>
        <text><![CDATA[<h3>$[name]</h3>]]></text>
      </BalloonStyle>
    </Style>
    <StyleMap id="line-1267FF-5000-nodesc">
      <Pair>
        <key>normal</key>
        <styleUrl>#line-1267FF-5000-nodesc-normal</styleUrl>
      </Pair>
      <Pair>
        <key>highlight</key>
        <styleUrl>#line-1267FF-5000-nodesc-highlight</styleUrl>
      </Pair>
    </StyleMap>
    <Placemark>
      <name>Marsruut Kose tee – Tallinn Industrial Education Center</name>
      <styleUrl>#line-1267FF-5000-nodesc</styleUrl>
      <LineString>
        <tessellate>1</tessellate>
        <coordinates>
          24.8712,59.455,0
          24.87086,59.45501,0
          24.87054,59.455,0
          24.87002,59.45499,0
          24.86899,59.45497,0
          24.86846,59.45495,0
          24.86842,59.45495,0
          24.8684,59.45494,0
          24.86838,59.45493,0
          24.86636,59.45492,0
          24.8662,59.4549,0
          24.86578,59.45487,0
          24.86545,59.45483,0
          24.86511,59.45478,0
          24.86489,59.45474,0
          24.86481,59.45472,0
          24.86217,59.45407,0
          24.86118,59.4538,0
          24.86023,59.4536,0
          24.86001,59.45355,0
          24.85995,59.45353,0
          24.8599,59.45352,0
          24.85977,59.45348,0
          24.85966,59.4534,0
          24.85963,59.45338,0
          24.85961,59.45336,0
          24.85959,59.45333,0
          24.85954,59.45326,0
          24.85948,59.45298,0
          24.85944,59.45293,0
          24.85942,59.45285,0
          24.85936,59.45266,0
          24.85931,59.45254,0
          24.85914,59.4521,0
          24.85911,59.45202,0
          24.85904,59.45187,0
          24.85892,59.45168,0
          24.85884,59.45161,0
          24.85874,59.45154,0
          24.85866,59.4515,0
          24.85863,59.45148,0
          24.85854,59.45144,0
          24.85843,59.4514,0
          24.85831,59.45137,0
          24.85817,59.45135,0
          24.85798,59.45131,0
          24.85797,59.45131,0
          24.85772,59.45129,0
          24.85749,59.45127,0
          24.8573,59.45126,0
          24.85728,59.45126,0
          24.85719,59.45125,0
          24.85705,59.45125,0
          24.85693,59.45125,0
          24.85691,59.45125,0
          24.85686,59.45125,0
          24.85677,59.45126,0
          24.85675,59.45126,0
          24.85671,59.45126,0
          24.85662,59.45127,0
          24.85642,59.4513,0
          24.85632,59.45132,0
          24.85596,59.45141,0
          24.85573,59.45151,0
          24.85565,59.45154,0
          24.85539,59.45164,0
          24.85452,59.45196,0
          24.85446,59.45197,0
          24.85416,59.45207,0
          24.85395,59.4521,0
          24.85374,59.4521,0
          24.85369,59.4521,0
          24.85365,59.4521,0
          24.85359,59.4521,0
          24.85347,59.45209,0
          24.85303,59.45198,0
          24.85267,59.45188,0
          24.85242,59.45182,0
          24.85228,59.45179,0
          24.85172,59.45165,0
          24.85164,59.45163,0
          24.85158,59.45162,0
          24.85136,59.45157,0
          24.85094,59.45149,0
          24.85004,59.45138,0
          24.84958,59.45134,0
          24.84903,59.45132,0
          24.84846,59.45131,0
          24.84842,59.45131,0
          24.84839,59.45131,0
          24.84831,59.45131,0
          24.84728,59.4513,0
          24.84721,59.4513,0
          24.84713,59.4513,0
          24.8461,59.45133,0
          24.84534,59.45139,0
          24.84412,59.4515,0
          24.84268,59.45162,0
          24.84247,59.45163,0
          24.84239,59.45164,0
          24.84226,59.45165,0
          24.84182,59.4517,0
          24.84151,59.45173,0
          24.84049,59.45182,0
          24.83867,59.45204,0
          24.83801,59.45209,0
          24.83735,59.45216,0
          24.83621,59.45231,0
          24.83618,59.45231,0
          24.83603,59.45233,0
          24.83546,59.4524,0
          24.83418,59.45255,0
          24.83417,59.45255,0
          24.83403,59.45255,0
          24.83392,59.45254,0
          24.83377,59.45252,0
          24.8337,59.45249,0
          24.83362,59.45245,0
          24.83356,59.45241,0
          24.83352,59.45237,0
          24.83348,59.4523,0
          24.83339,59.45199,0
          24.83321,59.45103,0
          24.83311,59.45077,0
          24.83306,59.45053,0
          24.833,59.45028,0
          24.83293,59.45002,0
          24.83291,59.44992,0
          24.83288,59.44983,0
          24.83282,59.44972,0
          24.83278,59.44967,0
          24.83272,59.4496,0
          24.83262,59.44951,0
          24.83252,59.44945,0
          24.83242,59.44939,0
          24.83236,59.44936,0
          24.83179,59.44922,0
          24.83124,59.44907,0
          24.83091,59.449,0
          24.8305,59.44891,0
          24.82915,59.44863,0
          24.82814,59.44838,0
          24.82738,59.44825,0
          24.82732,59.44824,0
          24.82725,59.44822,0
          24.82709,59.44817,0
          24.82705,59.44816,0
          24.82671,59.44807,0
          24.82664,59.44806,0
          24.82511,59.44775,0
          24.82494,59.44771,0
          24.82489,59.4477,0
          24.82473,59.44769,0
          24.82449,59.44766,0
          24.82435,59.44764,0
          24.82414,59.44762,0
          24.82413,59.44763,0
          24.82412,59.44763,0
          24.8241,59.44764,0
          24.82409,59.44764,0
          24.82407,59.44764,0
          24.82406,59.44765,0
          24.82404,59.44765,0
          24.82402,59.44765,0
          24.82401,59.44765,0
          24.82398,59.44765,0
          24.82396,59.44765,0
          24.82394,59.44765,0
          24.82392,59.44765,0
          24.82391,59.44765,0
          24.82389,59.44765,0
          24.82388,59.44765,0
          24.82386,59.44764,0
          24.82385,59.44764,0
          24.82383,59.44763,0
          24.82382,59.44763,0
          24.8238,59.44762,0
          24.82379,59.44762,0
          24.82378,59.44761,0
          24.82377,59.44761,0
          24.82376,59.4476,0
          24.82375,59.4476,0
          24.82374,59.44759,0
          24.82374,59.44758,0
          24.82373,59.44758,0
          24.82372,59.44757,0
          24.82371,59.44756,0
          24.82371,59.44755,0
          24.82363,59.44752,0
          24.82359,59.4475,0
          24.82334,59.44744,0
          24.82184,59.44709,0
          24.82081,59.44685,0
          24.82016,59.44668,0
          24.81947,59.44648,0
          24.81929,59.44643,0
          24.81925,59.44642,0
          24.81907,59.44637,0
          24.81876,59.44628,0
          24.81779,59.44597,0
          24.81688,59.44568,0
          24.81633,59.4455,0
          24.81493,59.44498,0
          24.81475,59.44491,0
          24.81451,59.44482,0
          24.81464,59.44475,0
          24.81483,59.44467,0
          24.81544,59.44438,0
          24.81555,59.44432,0
          24.81558,59.44429,0
          24.81559,59.44427,0
          24.81558,59.44422,0
          24.81558,59.44419,0
          24.81557,59.44417,0
          24.81553,59.44413,0
          24.8145,59.44355,0
          24.81449,59.44355,0
          24.81423,59.44341,0
          24.81374,59.44309,0
          24.81355,59.44298,0
          24.81327,59.44283,0
          24.81306,59.44275,0
          24.81297,59.44271,0
          24.81289,59.44269,0
          24.81274,59.44265,0
          24.81251,59.4426,0
          24.81229,59.44256,0
          24.8121,59.44253,0
          24.81183,59.44248,0
          24.8116,59.44244,0
          24.81065,59.44224,0
          24.81049,59.44217,0
          24.81038,59.44212,0
          24.81028,59.44207,0
          24.81019,59.44202,0
          24.80943,59.44158,0
          24.80918,59.44144,0
          24.80907,59.44138,0
          24.80899,59.44134,0
          24.80884,59.44125,0
          24.80878,59.44122,0
          24.80843,59.44103,0
          24.8075,59.44058,0
          24.80698,59.44032,0
          24.80686,59.44027,0
          24.80658,59.44013,0
          24.80633,59.44001,0
          24.80581,59.43976,0
          24.80516,59.43945,0
          24.80402,59.43892,0
          24.80287,59.43842,0
          24.80176,59.4379,0
          24.80037,59.43726,0
          24.80015,59.43716,0
          24.79996,59.43707,0
          24.79978,59.43698,0
          24.79895,59.43659,0
          24.79885,59.43652,0
          24.7988,59.43648,0
          24.79875,59.43643,0
          24.79869,59.43637,0
          24.79867,59.43634,0
          24.79865,59.4363,0
          24.79863,59.43625,0
          24.79861,59.43616,0
          24.79859,59.43605,0
          24.79856,59.43591,0
          24.7985,59.43573,0
          24.79845,59.43554,0
          24.79843,59.43545,0
          24.79843,59.43544,0
          24.7984,59.43523,0
          24.79838,59.43512,0
          24.79835,59.43495,0
          24.79834,59.4349,0
          24.79833,59.43485,0
          24.79832,59.43481,0
          24.79831,59.43478,0
          24.7983,59.43473,0
          24.79828,59.43463,0
          24.79827,59.43462,0
          24.79824,59.43451,0
          24.79823,59.43448,0
          24.79807,59.4339,0
          24.79807,59.43383,0
          24.79803,59.43367,0
          24.79802,59.43365,0
          24.798,59.43363,0
          24.79798,59.43361,0
          24.79796,59.4336,0
          24.79792,59.43358,0
          24.79774,59.43352,0
          24.79772,59.43351,0
          24.79756,59.43346,0
          24.79739,59.4334,0
          24.7973,59.43335,0
          24.79719,59.43331,0
          24.79711,59.43328,0
          24.79706,59.43326,0
          24.79663,59.43309,0
          24.79612,59.43289,0
          24.79593,59.4328,0
          24.79561,59.43267,0
          24.79531,59.43255,0
          24.79511,59.43247,0
          24.79472,59.43232,0
          24.79461,59.43227,0
          24.79447,59.43221,0
          24.79398,59.43193,0
          24.79388,59.43186,0
          24.79346,59.43153,0
          24.79334,59.43144,0
          24.79326,59.43139,0
          24.79317,59.43134,0
          24.79307,59.43129,0
          24.79277,59.43113,0
          24.79238,59.43091,0
          24.79232,59.43085,0
          24.79231,59.43083,0
          24.79223,59.43072,0
          24.79218,59.43063,0
          24.79214,59.43054,0
          24.792,59.43032,0
          24.79194,59.43025,0
          24.79158,59.42998,0
          24.79148,59.42991,0
          24.79134,59.42981,0
          24.79108,59.42961,0
          24.7904,59.4291,0
          24.79031,59.42903,0
          24.79025,59.42898,0
          24.79006,59.42882,0
          24.79,59.42878,0
          24.78985,59.42866,0
          24.78971,59.42854,0
          24.78965,59.42849,0
          24.78944,59.42832,0
          24.78921,59.42813,0
          24.7891,59.42804,0
          24.78867,59.4277,0
          24.78851,59.42758,0
          24.78841,59.42749,0
          24.78828,59.42738,0
          24.78897,59.42715,0
          24.78994,59.42681,0
          24.79008,59.42676,0
          24.79046,59.42663,0
          24.7916,59.42627,0
          24.79218,59.42608,0
          24.79277,59.42589,0
          24.79329,59.42565,0
          24.79377,59.42551,0
          24.79399,59.42545,0
          24.794,59.42539,0
          24.794,59.42535,0
          24.794,59.4253,0
          24.79398,59.42528,0
          24.79387,59.42522,0
          24.79337,59.42516,0
          24.79265,59.42505,0
          24.79208,59.42496,0
          24.79205,59.42495,0
          24.792,59.42494,0
          24.79173,59.4249,0
          24.79143,59.42486,0
          24.7911,59.42481,0
          24.79068,59.42475,0
          24.79016,59.42468,0
          24.78984,59.42463,0
          24.78953,59.42459,0
          24.78947,59.42458,0
          24.78925,59.42456,0
          24.78908,59.42453,0
          24.78892,59.42451,0
          24.78877,59.42449,0
          24.78847,59.42445,0
          24.78817,59.42441,0
          24.7878,59.42436,0
          24.78742,59.42431,0
          24.78729,59.42429,0
          24.78718,59.42428,0
          24.78707,59.42426,0
          24.78678,59.42421,0
          24.78662,59.42419,0
          24.7864,59.42416,0
          24.78607,59.4241,0
          24.78606,59.4241,0
          24.78562,59.42403,0
          24.78528,59.42398,0
          24.78503,59.42395,0
          24.78481,59.42392,0
          24.78466,59.4239,0
          24.78434,59.42386,0
          24.78432,59.42386,0
          24.78413,59.42384,0
          24.78393,59.42382,0
          24.78382,59.42381,0
          24.78372,59.4238,0
          24.78362,59.42379,0
          24.7835,59.42378,0
          24.7833,59.42377,0
          24.78316,59.42376,0
          24.78303,59.42375,0
          24.78283,59.42374,0
          24.78263,59.42373,0
          24.7825,59.42373,0
          24.78232,59.42372,0
          24.78206,59.42371,0
          24.78184,59.42371,0
          24.78164,59.4237,0
          24.78131,59.42369,0
          24.78111,59.42369,0
          24.78103,59.42369,0
          24.78062,59.42367,0
          24.78049,59.42367,0
          24.78028,59.42366,0
          24.78,59.42364,0
          24.77986,59.42363,0
          24.77967,59.42361,0
          24.77958,59.42361,0
          24.77948,59.4236,0
          24.77932,59.42358,0
          24.77917,59.42357,0
          24.77897,59.42355,0
          24.77876,59.42353,0
          24.77854,59.4235,0
          24.77834,59.42347,0
          24.77814,59.42345,0
          24.77794,59.42342,0
          24.77774,59.42339,0
          24.77758,59.42336,0
          24.77739,59.42333,0
          24.7773,59.42332,0
          24.77717,59.4233,0
          24.77705,59.42328,0
          24.77689,59.42325,0
          24.77678,59.42323,0
          24.77664,59.4232,0
          24.77648,59.42317,0
          24.77634,59.42314,0
          24.77618,59.42311,0
          24.77602,59.42308,0
          24.77585,59.42304,0
          24.77575,59.42301,0
          24.77553,59.42296,0
          24.77533,59.42291,0
          24.77517,59.42287,0
          24.775,59.42283,0
          24.77486,59.42279,0
          24.77469,59.42274,0
          24.77449,59.42268,0
          24.77402,59.42254,0
          24.77351,59.42239,0
          24.77323,59.42231,0
          24.77287,59.42221,0
          24.77218,59.42204,0
          24.77204,59.422,0
          24.77155,59.42187,0
          24.77121,59.42178,0
          24.77089,59.42168,0
          24.77072,59.42163,0
          24.77057,59.42157,0
          24.77041,59.42152,0
          24.77025,59.42146,0
          24.7701,59.42141,0
          24.77001,59.42137,0
          24.7699,59.42133,0
          24.7698,59.42129,0
          24.76972,59.42125,0
          24.76962,59.42121,0
          24.76953,59.42117,0
          24.76945,59.42113,0
          24.76934,59.42108,0
          24.76914,59.42097,0
          24.76903,59.42092,0
          24.76889,59.42085,0
          24.76878,59.42078,0
          24.76868,59.42072,0
          24.76857,59.42066,0
          24.7685,59.42061,0
          24.76835,59.42051,0
          24.76821,59.42041,0
          24.76811,59.42034,0
          24.768,59.42025,0
          24.76777,59.42006,0
          24.76753,59.41985,0
          24.76713,59.41947,0
          24.7665,59.41891,0
          24.76616,59.4186,0
          24.76561,59.4182,0
          24.76542,59.41807,0
          24.76541,59.41807,0
          24.76521,59.41792,0
          24.765,59.41777,0
          24.76458,59.4175,0
          24.76411,59.41721,0
          24.76377,59.41703,0
          24.76319,59.41668,0
          24.76273,59.41639,0
          24.76209,59.41599,0
          24.76156,59.41564,0
          24.76114,59.41534,0
          24.76058,59.41491,0
          24.76006,59.41449,0
          24.75938,59.41388,0
          24.75877,59.41336,0
          24.75855,59.41318,0
          24.75833,59.413,0
          24.75812,59.41283,0
          24.75778,59.41255,0
          24.75757,59.41239,0
          24.75732,59.4122,0
          24.75728,59.41217,0
          24.75707,59.41203,0
          24.75678,59.41183,0
          24.75637,59.41158,0
          24.75612,59.41144,0
          24.75567,59.41122,0
          24.7551,59.41091,0
          24.75439,59.41054,0
          24.75422,59.41046,0
          24.7539,59.41033,0
          24.7528,59.40992,0
          24.7519,59.4096,0
          24.74966,59.4088,0
          24.74863,59.40843,0
          24.74723,59.40793,0
          24.74569,59.4074,0
          24.74355,59.40668,0
          24.74033,59.40558,0
          24.73999,59.40547,0
          24.73939,59.40529,0
          24.73927,59.40524,0
          24.73874,59.40506,0
          24.73811,59.40483,0
          24.73792,59.40476,0
          24.73733,59.40458,0
          24.73653,59.4043,0
          24.73637,59.40426,0
          24.73613,59.40421,0
          24.73603,59.40419,0
          24.73565,59.4041,0
          24.73481,59.40391,0
          24.73462,59.40387,0
          24.73358,59.40364,0
          24.73237,59.40347,0
          24.73047,59.40324,0
          24.7304,59.40324,0
          24.72977,59.40316,0
          24.72953,59.40312,0
          24.72824,59.40296,0
          24.72802,59.40293,0
          24.727,59.4028,0
          24.72618,59.40268,0
          24.72562,59.40261,0
          24.72546,59.40259,0
          24.7248,59.4025,0
          24.7242,59.40244,0
          24.72371,59.4024,0
          24.7235,59.40238,0
          24.72324,59.40237,0
          24.72303,59.40236,0
          24.72286,59.40236,0
          24.72258,59.40236,0
          24.72237,59.40236,0
          24.72144,59.40241,0
          24.72048,59.40249,0
          24.72035,59.4025,0
          24.72011,59.40252,0
          24.71993,59.40253,0
          24.71975,59.40254,0
          24.71954,59.40255,0
          24.7194,59.40256,0
          24.71927,59.40256,0
          24.71901,59.40256,0
          24.71868,59.40256,0
          24.71834,59.40256,0
          24.71816,59.40256,0
          24.71798,59.40255,0
          24.71779,59.40254,0
          24.71746,59.40252,0
          24.7171,59.40249,0
          24.71683,59.40246,0
          24.71661,59.40244,0
          24.71647,59.40242,0
          24.71628,59.40241,0
          24.7161,59.40239,0
          24.71585,59.40238,0
          24.71541,59.40238,0
          24.71505,59.40238,0
          24.71463,59.40239,0
          24.71402,59.4024,0
          24.71362,59.40241,0
          24.7131,59.40241,0
          24.71288,59.40241,0
          24.71278,59.40241,0
          24.71269,59.40242,0
          24.71202,59.40243,0
          24.71157,59.40246,0
          24.71128,59.40248,0
          24.71111,59.40249,0
          24.71092,59.4025,0
          24.71071,59.40252,0
          24.71061,59.40253,0
          24.71053,59.40253,0
          24.70991,59.40262,0
          24.70886,59.40287,0
          24.70873,59.40291,0
          24.70848,59.40298,0
          24.70802,59.40311,0
          24.70783,59.40317,0
          24.70737,59.4033,0
          24.70724,59.40334,0
          24.70715,59.40336,0
          24.707,59.4034,0
          24.70665,59.40349,0
          24.7062,59.40362,0
          24.70446,59.40413,0
          24.70431,59.40418,0
          24.70352,59.40438,0
          24.70275,59.40461,0
          24.70254,59.40467,0
          24.70221,59.40476,0
          24.70192,59.40485,0
          24.70166,59.405,0
          24.70161,59.40503,0
          24.70157,59.40505,0
          24.70152,59.40508,0
          24.70145,59.40513,0
          24.70141,59.40516,0
          24.70139,59.40518,0
          24.70134,59.4054,0
          24.70175,59.40588,0
          24.7022,59.4064,0
          24.70271,59.40696,0
          24.70328,59.4076,0
          24.70369,59.40807,0
          24.70389,59.40826,0
          24.70436,59.40889,0
          24.7049,59.40943,0
          24.70499,59.40954,0
          24.70533,59.40995,0
          24.70553,59.41018,0
          24.70563,59.41028,0
          24.70605,59.41082,0
          24.7064,59.41125,0
          24.70669,59.41159,0
          24.70679,59.41173,0
          24.70699,59.412,0
          24.7071,59.41214,0
          24.70775,59.41288,0
          24.70751,59.41294,0
          24.7073,59.41298,0
          24.70711,59.41301,0
          24.70694,59.41305,0
          24.7068,59.41307,0
          24.70658,59.41311,0
          24.70609,59.4126,0
          24.70537,59.41178,0
        </coordinates>
      </LineString>
    </Placemark>
    <Placemark>
      <name>Kose tee</name>
      <styleUrl>#icon-1899-DB4436-nodesc</styleUrl>
      <Point>
        <coordinates>
          24.871199,59.4550031,0
        </coordinates>
      </Point>
    </Placemark>
    <Placemark>
      <name>Tallinn Industrial Education Center</name>
      <styleUrl>#icon-1899-DB4436-nodesc</styleUrl>
      <Point>
        <coordinates>
          24.7053735,59.4117824,0
        </coordinates>
      </Point>
    </Placemark>
  </Document>
</kml>
